{"epoch":1784710044,"count":18256,"objects":[{"id":"42969","name":"SENTINEL 5P","type":"PAYLOAD","l1":"1 42969U 17064A   26202.24655485  .00000027  00000-0  33683-4 0  9995","l2":"2 42969  98.7929 144.1371 0001192  92.3814 267.7498 14.19523981454398"}]}